CCSDS_OMM_VERS = 2.0
CREATION_DATE  = 
ORIGINATOR     = 

OBJECT_NAME    = IDEFIX & ARIANE 42P R/B
OBJECT_ID      = 2002-021B
CENTER_NAME    = EARTH
REF_FRAME      = TEME
TIME_SYSTEM    = UTC
MEAN_ELEMENT_THEORY = SGP/SGP4

EPOCH          = 2025-12-26T05:14:20.291424
MEAN_MOTION    = 14.30959876
ECCENTRICITY   = .00127232
INCLINATION    = 98.5804
RA_OF_ASC_NODE = 294.7353
ARG_OF_PERICENTER = 47.2683
MEAN_ANOMALY   = 312.9569

EPHEMERIS_TYPE = 0
CLASSIFICATION_TYPE = U
NORAD_CAT_ID   = 27422
ELEMENT_SET_NO = 999
REV_AT_EPOCH   = 23351
BSTAR          = .14491578E-3
MEAN_MOTION_DOT = .338E-5
MEAN_MOTION_DDOT = 0

CCSDS_OMM_VERS = 2.0
CREATION_DATE  = 
ORIGINATOR     = 

OBJECT_NAME    = AQUA
OBJECT_ID      = 2002-022A
CENTER_NAME    = EARTH
REF_FRAME      = TEME
TIME_SYSTEM    = UTC
MEAN_ELEMENT_THEORY = SGP/SGP4

EPOCH          = 2025-12-24T19:18:33.414624
MEAN_MOTION    = 14.61757572
ECCENTRICITY   = .00018094
INCLINATION    = 98.4055
RA_OF_ASC_NODE = 319.8810
ARG_OF_PERICENTER = 102.1365
MEAN_ANOMALY   = 317.5475

EPHEMERIS_TYPE = 0
CLASSIFICATION_TYPE = U
NORAD_CAT_ID   = 27424
ELEMENT_SET_NO = 999
REV_AT_EPOCH   = 25779
BSTAR          = .19560508E-3
MEAN_MOTION_DOT = .926E-5
MEAN_MOTION_DDOT = 0

CCSDS_OMM_VERS = 2.0
CREATION_DATE  = 
ORIGINATOR     = 

OBJECT_NAME    = CZ-4B R/B
OBJECT_ID      = 2002-024C
CENTER_NAME    = EARTH
REF_FRAME      = TEME
TIME_SYSTEM    = UTC
MEAN_ELEMENT_THEORY = SGP/SGP4

EPOCH          = 2025-12-26T03:45:11.877408
MEAN_MOTION    = 14.14530616
ECCENTRICITY   = .00494003
INCLINATION    = 98.8980
RA_OF_ASC_NODE = 48.8802
ARG_OF_PERICENTER = 231.0846
MEAN_ANOMALY   = 192.8730

EPHEMERIS_TYPE = 0
CLASSIFICATION_TYPE = U
NORAD_CAT_ID   = 27432
ELEMENT_SET_NO = 999
REV_AT_EPOCH   = 21884
BSTAR          = .42337425E-4
MEAN_MOTION_DOT = .37E-6
MEAN_MOTION_DDOT = 0

CCSDS_OMM_VERS = 2.0
CREATION_DATE  = 
ORIGINATOR     = 

OBJECT_NAME    = MIDORI II (ADEOS-II)
OBJECT_ID      = 2002-056A
CENTER_NAME    = EARTH
REF_FRAME      = TEME
TIME_SYSTEM    = UTC
MEAN_ELEMENT_THEORY = SGP/SGP4

EPOCH          = 2025-12-25T21:02:52.708416
MEAN_MOTION    = 14.29214255
ECCENTRICITY   = .0000857
INCLINATION    = 98.7656
RA_OF_ASC_NODE = 312.9034
ARG_OF_PERICENTER = 145.9598
MEAN_ANOMALY   = 214.1638

EPHEMERIS_TYPE = 0
CLASSIFICATION_TYPE = U
NORAD_CAT_ID   = 27597
ELEMENT_SET_NO = 999
REV_AT_EPOCH   = 19975
BSTAR          = .13473E-3
MEAN_MOTION_DOT = .297E-5
MEAN_MOTION_DDOT = 0

CCSDS_OMM_VERS = 2.0
CREATION_DATE  = 
ORIGINATOR     = 

OBJECT_NAME    = H-2A R/B
OBJECT_ID      = 2002-056E
CENTER_NAME    = EARTH
REF_FRAME      = TEME
TIME_SYSTEM    = UTC
MEAN_ELEMENT_THEORY = SGP/SGP4

EPOCH          = 2025-12-26T07:25:52.148640
MEAN_MOTION    = 14.33687816
ECCENTRICITY   = .00708344
INCLINATION    = 98.3087
RA_OF_ASC_NODE = 318.5274
ARG_OF_PERICENTER = 21.1996
MEAN_ANOMALY   = 141.8953

EPHEMERIS_TYPE = 0
CLASSIFICATION_TYPE = U
NORAD_CAT_ID   = 27601
ELEMENT_SET_NO = 999
REV_AT_EPOCH   = 20359
BSTAR          = .165288E-3
MEAN_MOTION_DOT = .43E-5
MEAN_MOTION_DDOT = 0

CCSDS_OMM_VERS = 2.0
CREATION_DATE  = 
ORIGINATOR     = 

OBJECT_NAME    = CZ-4B R/B
OBJECT_ID      = 2003-049C
CENTER_NAME    = EARTH
REF_FRAME      = TEME
TIME_SYSTEM    = UTC
MEAN_ELEMENT_THEORY = SGP/SGP4

EPOCH          = 2025-12-26T05:06:10.958112
MEAN_MOTION    = 14.54921973
ECCENTRICITY   = .00493935
INCLINATION    = 98.6799
RA_OF_ASC_NODE = 347.2861
ARG_OF_PERICENTER = 95.7852
MEAN_ANOMALY   = 264.8978

EPHEMERIS_TYPE = 0
CLASSIFICATION_TYPE = U
NORAD_CAT_ID   = 28059
ELEMENT_SET_NO = 999
REV_AT_EPOCH   = 17591
BSTAR          = .1143283E-3
MEAN_MOTION_DOT = .448E-5
MEAN_MOTION_DDOT = 0

CCSDS_OMM_VERS = 2.0
CREATION_DATE  = 
ORIGINATOR     = 

OBJECT_NAME    = CZ-2C R/B
OBJECT_ID      = 2004-012C
CENTER_NAME    = EARTH
REF_FRAME      = TEME
TIME_SYSTEM    = UTC
MEAN_ELEMENT_THEORY = SGP/SGP4

EPOCH          = 2025-12-26T02:46:45.005952
MEAN_MOTION    = 15.56512505
ECCENTRICITY   = .00166689
INCLINATION    = 97.7392
RA_OF_ASC_NODE = 53.8493
ARG_OF_PERICENTER = 218.1238
MEAN_ANOMALY   = 141.8838

EPHEMERIS_TYPE = 0
CLASSIFICATION_TYPE = U
NORAD_CAT_ID   = 28222
ELEMENT_SET_NO = 999
REV_AT_EPOCH   = 19280
BSTAR          = .55186477E-3
MEAN_MOTION_DOT = .39376E-3
MEAN_MOTION_DDOT = 0

CCSDS_OMM_VERS = 2.0
CREATION_DATE  = 
ORIGINATOR     = 

OBJECT_NAME    = SL-16 R/B
OBJECT_ID      = 2004-021B
CENTER_NAME    = EARTH
REF_FRAME      = TEME
TIME_SYSTEM    = UTC
MEAN_ELEMENT_THEORY = SGP/SGP4

EPOCH          = 2025-12-26T04:45:51.702048
MEAN_MOTION    = 14.14580264
ECCENTRICITY   = .00045626
INCLINATION    = 71.0004
RA_OF_ASC_NODE = 26.7213
ARG_OF_PERICENTER = 177.3920
MEAN_ANOMALY   = 182.7227

EPHEMERIS_TYPE = 0
CLASSIFICATION_TYPE = U
NORAD_CAT_ID   = 28353
ELEMENT_SET_NO = 999
REV_AT_EPOCH   = 11244
BSTAR          = .12754338E-3
MEAN_MOTION_DOT = .197E-5
MEAN_MOTION_DDOT = 0

CCSDS_OMM_VERS = 2.0
CREATION_DATE  = 
ORIGINATOR     = 

OBJECT_NAME    = CZ-4B R/B
OBJECT_ID      = 2004-035C
CENTER_NAME    = EARTH
REF_FRAME      = TEME
TIME_SYSTEM    = UTC
MEAN_ELEMENT_THEORY = SGP/SGP4

EPOCH          = 2025-12-26T01:21:12.050208
MEAN_MOTION    = 15.27585108
ECCENTRICITY   = .00317914
INCLINATION    = 97.3592
RA_OF_ASC_NODE = 30.2227
ARG_OF_PERICENTER = 227.9847
MEAN_ANOMALY   = 131.8685

EPHEMERIS_TYPE = 0
CLASSIFICATION_TYPE = U
NORAD_CAT_ID   = 28415
ELEMENT_SET_NO = 999
REV_AT_EPOCH   = 16866
BSTAR          = .31175997E-3
MEAN_MOTION_DOT = .846E-4
MEAN_MOTION_DDOT = 0

CCSDS_OMM_VERS = 2.0
CREATION_DATE  = 
ORIGINATOR     = 

OBJECT_NAME    = CZ-2C R/B
OBJECT_ID      = 2004-046B
CENTER_NAME    = EARTH
REF_FRAME      = TEME
TIME_SYSTEM    = UTC
MEAN_ELEMENT_THEORY = SGP/SGP4

EPOCH          = 2025-12-26T05:04:33.114432
MEAN_MOTION    = 14.26948781
ECCENTRICITY   = .01398365
INCLINATION    = 98.1998
RA_OF_ASC_NODE = 274.7527
ARG_OF_PERICENTER = 12.6737
MEAN_ANOMALY   = 347.7902

EPHEMERIS_TYPE = 0
CLASSIFICATION_TYPE = U
NORAD_CAT_ID   = 28480
ELEMENT_SET_NO = 999
REV_AT_EPOCH   = 9802
BSTAR          = .12998685E-3
MEAN_MOTION_DOT = .309E-5
MEAN_MOTION_DDOT = 0

CCSDS_OMM_VERS = 2.0
CREATION_DATE  = 
ORIGINATOR     = 

OBJECT_NAME    = ARIANE 5 R/B
OBJECT_ID      = 2004-049H
CENTER_NAME    = EARTH
REF_FRAME      = TEME
TIME_SYSTEM    = UTC
MEAN_ELEMENT_THEORY = SGP/SGP4

EPOCH          = 2025-12-25T23:51:01.668384
MEAN_MOTION    = 14.85045548
ECCENTRICITY   = .00835364
INCLINATION    = 98.2529
RA_OF_ASC_NODE = 160.7510
ARG_OF_PERICENTER = 229.4319
MEAN_ANOMALY   = 129.9602

EPHEMERIS_TYPE = 0
CLASSIFICATION_TYPE = U
NORAD_CAT_ID   = 28499
ELEMENT_SET_NO = 999
REV_AT_EPOCH   = 13485
BSTAR          = .15019013E-3
MEAN_MOTION_DOT = .1299E-4
MEAN_MOTION_DDOT = 0

CCSDS_OMM_VERS = 2.0
CREATION_DATE  = 
ORIGINATOR     = 

OBJECT_NAME    = CZ-2D R/B
OBJECT_ID      = 2005-024B
CENTER_NAME    = EARTH
REF_FRAME      = TEME
TIME_SYSTEM    = UTC
MEAN_ELEMENT_THEORY = SGP/SGP4

EPOCH          = 2025-12-25T22:13:37.365888
MEAN_MOTION    = 15.53951368
ECCENTRICITY   = .0003434
INCLINATION    = 97.3631
RA_OF_ASC_NODE = 7.7251
ARG_OF_PERICENTER = 310.7249
MEAN_ANOMALY   = 49.3706

EPHEMERIS_TYPE = 0
CLASSIFICATION_TYPE = U
NORAD_CAT_ID   = 28738
ELEMENT_SET_NO = 999
REV_AT_EPOCH   = 12830
BSTAR          = .48371E-3
MEAN_MOTION_DOT = .31196E-3
MEAN_MOTION_DDOT = 0

