IDEFIX & ARIANE 42P R/B 
1 27422U 02021B   25360.21829041  .00000338  00000+0  14492-3 0  9991
2 27422  98.5804 294.7353 0012723  47.2683 312.9569 14.30959876233512
AQUA                    
1 27424U 02022A   25358.80455341  .00000926  00000+0  19561-3 0  9999
2 27424  98.4055 319.8810 0001809 102.1365 317.5475 14.61757572257795
CZ-4B R/B               
1 27432U 02024C   25360.15638747  .00000037  00000+0  42337-4 0  9995
2 27432  98.8980  48.8802 0049400 231.0846 192.8730 14.14530616218847
MIDORI II (ADEOS-II)    
1 27597U 02056A   25359.87699894  .00000297  00000+0  13473-3 0  9995
2 27597  98.7656 312.9034 0000857 145.9598 214.1638 14.29214255199757
H-2A R/B                
1 27601U 02056E   25360.30963135  .00000430  00000+0  16529-3 0  9997
2 27601  98.3087 318.5274 0070834  21.1996 141.8953 14.33687816203590
CZ-4B R/B               
1 28059U 03049C   25360.21262683  .00000448  00000+0  11433-3 0  9996
2 28059  98.6799 347.2861 0049393  95.7852 264.8978 14.54921973175911
CZ-2C R/B               
1 28222U 04012C   25360.11579868  .00039376  00000+0  55186-3 0  9999
2 28222  97.7392  53.8493 0016668 218.1238 141.8838 15.56512505192807
SL-16 R/B               
1 28353U 04021B   25360.19851507  .00000197  00000+0  12754-3 0  9998
2 28353  71.0004  26.7213 0004562 177.3920 182.7227 14.14580264112448
CZ-4B R/B               
1 28415U 04035C   25360.05638947  .00008460  00000+0  31176-3 0  9998
2 28415  97.3592  30.2227 0031791 227.9847 131.8685 15.27585108168664
CZ-2C R/B               
1 28480U 04046B   25360.21149438  .00000309  00000+0  12999-3 0  9998
2 28480  98.1998 274.7527 0139836  12.6737 347.7902 14.26948781 98029
ARIANE 5 R/B            
1 28499U 04049H   25359.99376931  .00001299  00000+0  15019-3 0  9999
2 28499  98.2529 160.7510 0083536 229.4319 129.9602 14.85045548134858
CZ-2D R/B               
1 28738U 05024B   25359.92612692  .00031196  00000+0  48371-3 0  9995
2 28738  97.3631   7.7251 0003434 310.7249  49.3706 15.53951368128300
